H1 CPF 01  gfz 2021 04 08 12  5982 terrasarx 
H2 0702601  6201 31698    2021 04 08 12 59 42 2021 04 13 00 00 42   120 1 1  0 0 0
H9
10 0 59314   6462.000000  0   -1459900.329  -4405412.394  -5098251.155
10 0 59314   6582.000000  0   -1863806.309  -4921709.820  -4452895.734
10 0 59314   6702.000000  0   -2243523.973  -5345554.068  -3729546.881
10 0 59314   6822.000000  0   -2590727.728  -5669968.322  -2940803.037
10 0 59314   6942.000000  0   -2897539.998  -5889837.900  -2100440.145
10 0 59314   7062.000000  0   -3156707.247  -6002001.810  -1223174.083
10 0 59314   7182.000000  0   -3361767.648  -6005307.031   -324401.223
10 0 59314   7302.000000  0   -3507204.962  -5900622.120    580077.466
10 0 59314   7422.000000  0   -3588584.749  -5690810.110   1474341.903
10 0 59314   7542.000000  0   -3602669.564  -5380660.781   2342642.474
10 0 59314   7662.000000  0   -3547509.428  -4976783.369   3169686.239
10 0 59314   7782.000000  0   -3422505.742  -4487463.940   3940913.335
10 0 59314   7902.000000  0   -3228447.155  -3922490.629   4642758.510
10 0 59314   8022.000000  0   -2967516.680  -3292950.716   5262891.701
10 0 59314   8142.000000  0   -2643270.220  -2611005.940   5790433.281
10 0 59314   8262.000000  0   -2260586.951  -1889651.983   6216140.946
10 0 59314   8382.000000  0   -1825593.657  -1142467.136   6532567.456
10 0 59314   8502.000000  0   -1345562.826   -383352.501   6734186.022
10 0 59314   8622.000000  0    -828788.658    373728.103   6817478.314
10 0 59314   8742.000000  0    -284444.206   1115003.305   6780992.022
10 0 59314   8862.000000  0     277581.290   1827144.309   6625365.243
10 0 59314   8982.000000  0     846861.855   2497504.539   6353315.945
10 0 59314   9102.000000  0    1412627.487   3114343.934   5969596.867
10 0 59314   9222.000000  0    1963966.854   3667036.102   5480918.009
10 0 59314   9342.000000  0    2490037.607   4146255.603   4895835.838
10 0 59314   9462.000000  0    2980281.526   4544140.972   4224608.837
10 0 59314   9582.000000  0    3424637.528   4854428.625   3479021.561
10 0 59314   9702.000000  0    3813750.413   5072558.520   2672182.689
10 0 59314   9822.000000  0    4139172.866   5195747.607   1818291.854
10 0 59314   9942.000000  0    4393547.565   5223023.216    932385.027
10 0 59314  10062.000000  0    4570772.473   5155224.882     30064.514
10 0 59314  10182.000000  0    4666140.664   4994966.059   -872786.395
10 0 59314  10302.000000  0    4676452.420   4746558.671  -1760290.717
10 0 59314  10422.000000  0    4600097.480   4415905.481  -2616864.295
10 0 59314  10542.000000  0    4437104.889   4010361.637  -3427495.505
10 0 59314  10662.000000  0    4189158.649   3538568.909  -4178011.824
10 0 59314  10782.000000  0    3859580.057   3010267.419  -4855326.337
10 0 59314  10902.000000  0    3453279.016   2436090.376  -5447661.490
10 0 59314  11022.000000  0    2976674.582   1827346.769  -5944746.643
10 0 59314  11142.000000  0    2437587.163   1195796.503  -6337985.839
10 0 59314  11262.000000  0    1845105.409    553423.605  -6620594.372
10 0 59314  11382.000000  0    1209432.075    -87787.849  -6787704.278
10 0 59314  11502.000000  0     541709.465   -716073.035  -6836441.129
10 0 59314  11622.000000  0    -146173.898  -1320097.743  -6765966.749
10 0 59314  11742.000000  0    -841789.250  -1889156.741  -6577491.098
10 0 59314  11862.000000  0   -1532386.573  -2413358.955  -6274255.046
10 0 59314  11982.000000  0   -2205123.135  -2883797.322  -5861480.389
10 0 59314  12102.000000  0   -2847297.186  -3292699.245  -5346289.264
10 0 59314  12222.000000  0   -3446585.867  -3633557.627  -4737593.781
10 0 59314  12342.000000  0   -3991283.088  -3901239.074  -4045952.722
10 0 59314  12462.000000  0   -4470530.927  -4092065.971  -3283398.189
10 0 59314  12582.000000  0   -4874541.168  -4203871.482  -2463234.007
10 0 59314  12702.000000  0   -5194801.202  -4236025.124  -1599807.349
10 0 59314  12822.000000  0   -5424258.911  -4189427.519   -708258.047
10 0 59314  12942.000000  0   -5557481.795  -4066474.374    195750.034
10 0 59314  13062.000000  0   -5590786.070  -3870990.201   1096310.678
10 0 59314  13182.000000  0   -5522330.774  -3608132.325   1977564.893
10 0 59314  13302.000000  0   -5352173.768  -3284266.634   2823989.726
10 0 59314  13422.000000  0   -5082289.279  -2906819.980   3620679.460
10 0 59314  13542.000000  0   -4716546.794  -2484112.905   4353614.700
10 0 59314  13662.000000  0   -4260650.841  -2025175.845   5009912.661
10 0 59314  13782.000000  0   -3722045.206  -1539555.483   5578052.306
10 0 59314  13902.000000  0   -3109785.348  -1037116.014   6048073.982
10 0 59314  14022.000000  0   -2434379.488   -527837.656   6411751.028
10 0 59314  14142.000000  0   -1707601.193    -21616.994   6662727.816
10 0 59314  14262.000000  0    -942279.763    471924.250   6796623.145
10 0 59314  14382.000000  0    -152072.800    943620.342   6811101.820
10 0 59314  14502.000000  0     648777.178   1384931.001   6705912.775
10 0 59314  14622.000000  0    1445698.659   1788096.049   6482893.318
10 0 59314  14742.000000  0    2224055.453   2146272.004   6145938.376
10 0 59314  14862.000000  0    2969414.865   2453648.562   5700937.162
10 0 59314  14982.000000  0    3667817.491   2705544.451   5155676.814
10 0 59314  15102.000000  0    4306042.181   2898480.383   4519711.504
10 0 59314  15222.000000  0    4871860.401   3030227.856   3804200.864
10 0 59314  15342.000000  0    5354279.814   3099833.048   3021718.875
10 0 59314  15462.000000  0    5743765.917   3107612.305   2186030.856
10 0 59314  15582.000000  0    6032436.616   3055122.609   1311849.950
10 0 59314  15702.000000  0    6214228.104   2945106.302    414572.353
10 0 59314  15822.000000  0    6285024.419   2781410.046   -490002.514
10 0 59314  15942.000000  0    6242747.157   2568879.817  -1385959.445
10 0 59314  16062.000000  0    6087403.976   2313236.661  -2257554.372
10 0 59314  16182.000000  0    5821097.159   2020937.291  -3089498.063
10 0 59314  16302.000000  0    5447989.102   1699019.881  -3867229.204
10 0 59314  16422.000000  0    4974227.576   1354940.621  -4577170.866
10 0 59314  16542.000000  0    4407831.657    996405.432  -5206964.423
10 0 59314  16662.000000  0    3758544.893    631202.341  -5745677.003
10 0 59314  16782.000000  0    3037658.915    267036.910  -6183982.075
10 0 59314  16902.000000  0    2257810.008    -88625.524  -6514310.010
10 0 59314  17022.000000  0    1432755.178   -428708.120  -6730966.973
10 0 59314  17142.000000  0     577131.053   -746658.995  -6830224.212
10 0 59314  17262.000000  0    -293803.287  -1036573.491  -6810374.971
10 0 59314  17382.000000  0   -1164431.861  -1293300.216  -6671759.483
10 0 59314  17502.000000  0   -2019055.070  -1512530.333  -6416760.647
10 0 59314  17622.000000  0   -2842166.870  -1690868.729  -6049766.855
10 0 59314  17742.000000  0   -3618729.770  -1825885.789  -5577104.252
10 0 59314  17862.000000  0   -4334448.034  -1916150.375  -5006940.046
10 0 59314  17982.000000  0   -4976033.689  -1961242.020  -4349152.570
10 0 59314  18102.000000  0   -5531458.520  -1961742.112  -3615171.016
10 0 59314  18222.000000  0   -5990188.733  -1919204.323  -2817785.769
10 0 59314  18342.000000  0   -6343395.513  -1836103.942  -1970930.632
10 0 59314  18462.000000  0   -6584136.377  -1715766.992  -1089441.233
10 0 59314  18582.000000  0   -6707502.271  -1562280.751   -188792.986
10 0 59314  18702.000000  0   -6710726.198  -1380387.171    715176.080
10 0 59314  18822.000000  0   -6593249.217  -1175361.779   1606551.987
10 0 59314  18942.000000  0   -6356741.637   -952881.585   2469634.116
10 0 59314  19062.000000  0   -6005079.205   -718885.333   3289220.560
10 0 59314  19182.000000  0   -5544274.951   -479429.014   4050883.691
10 0 59314  19302.000000  0   -4982366.931   -240541.173   4741229.283
10 0 59314  19422.000000  0   -4329267.589     -8081.934   5348132.249
10 0 59314  19542.000000  0   -3596580.097    212392.038   5860947.792
10 0 59314  19662.000000  0   -2797382.970    415752.736   6270694.874
10 0 59314  19782.000000  0   -1945988.942    597413.225   6570207.639
10 0 59314  19902.000000  0   -1057683.455    753425.649   6754255.242
10 0 59314  20022.000000  0    -148447.407    880563.625   6819626.769
10 0 59314  20142.000000  0     765330.095    976386.735   6765182.976
10 0 59314  20262.000000  0    1667145.879   1039286.900   6591874.903
10 0 59314  20382.000000  0    2540679.680   1068515.709   6302728.354
10 0 59314  20502.000000  0    3370089.226   1064191.852   5902795.087
10 0 59314  20622.000000  0    4140300.107   1027288.869   5399069.560
10 0 59314  20742.000000  0    4837282.681    959603.500   4800372.162
10 0 59314  20862.000000  0    5448314.437    863704.758   4117202.496
10 0 59314  20982.000000  0    5962222.565    742865.360   3361559.242
10 0 59314  21102.000000  0    6369598.144    600976.631   2546729.647
10 0 59314  21222.000000  0    6662977.046    442447.736   1687055.044
10 0 59314  21342.000000  0    6836986.735    272092.826    797674.508
10 0 59314  21462.000000  0    6888450.156     95008.290   -105748.771
10 0 59314  21582.000000  0    6816447.030    -83557.042  -1007312.131
10 0 59314  21702.000000  0    6622328.388   -258335.038  -1891162.558
10 0 59314  21822.000000  0    6309685.244   -424171.246  -2741783.385
10 0 59314  21942.000000  0    5884272.995   -576154.784  -3544271.910
10 0 59314  22062.000000  0    5353893.945   -709741.354  -4284603.070
10 0 59314  22182.000000  0    4728240.974   -820865.966  -4949873.089
10 0 59314  22302.000000  0    4018708.605   -906042.992  -5528518.644
10 0 59314  22422.000000  0    3238175.805   -962452.784  -6010509.974
10 0 59314  22542.000000  0    2400764.609   -988012.446  -6387514.410
10 0 59314  22662.000000  0    1521581.052   -981428.173  -6653028.817
10 0 59314  22782.000000  0     616443.403   -942230.563  -6802480.935
10 0 59314  22902.000000  0    -298398.924   -870791.740  -6833300.169
99
